[{"OBJECT_NAME":"IRIDIUM 152","OBJECT_ID":"2018-047D","EPOCH":"2026-03-09T16:21:38.136960","MEAN_MOTION":14.34219217,"ECCENTRICITY":0.00022297,"INCLINATION":86.3976,"RA_OF_ASC_NODE":129.947,"ARG_OF_PERICENTER":92.4036,"MEAN_ANOMALY":267.7415,"EPHEMERIS_TYPE":0,"CLASSIFICATION_TYPE":"U","NORAD_CAT_ID":43479,"ELEMENT_SET_NO":999,"REV_AT_EPOCH":40822,"BSTAR":9.8771642e-5,"MEAN_MOTION_DOT":2.96e-6,"MEAN_MOTION_DDOT":0},{"OBJECT_NAME":"SL-8 R\/B","OBJECT_ID":"1987-006B","EPOCH":"2026-03-09T22:54:34.409088","MEAN_MOTION":14.39147667,"ECCENTRICITY":0.00279519,"INCLINATION":74.0605,"RA_OF_ASC_NODE":347.558,"ARG_OF_PERICENTER":109.062,"MEAN_ANOMALY":251.3565,"EPHEMERIS_TYPE":0,"CLASSIFICATION_TYPE":"U","NORAD_CAT_ID":17304,"ELEMENT_SET_NO":999,"REV_AT_EPOCH":5128,"BSTAR":0.00011866842,"MEAN_MOTION_DOT":3.43e-6,"MEAN_MOTION_DDOT":0}]
